{
  "type": "FeatureCollection",
  "features": [
    {
      "type": "Feature",
      "properties": {
        "OBJECT_NAME": "BEIDOU-3 M1 (C19)",
        "OBJECT_ID": "2017-069A",
        "EPOCH": "2025-11-28T07:28:58.255968",
        "MEAN_MOTION": 1.86230943,
        "ECCENTRICITY": 0.00086215,
        "INCLINATION": 56.5141,
        "RA_OF_ASC_NODE": 69.7116,
        "ARG_OF_PERICENTER": 303.3663,
        "MEAN_ANOMALY": 56.5627,
        "EPHEMERIS_TYPE": 0,
        "CLASSIFICATION_TYPE": "U",
        "NORAD_CAT_ID": 43001,
        "ELEMENT_SET_NO": 999,
        "REV_AT_EPOCH": 5486,
        "BSTAR": 0,
        "MEAN_MOTION_DOT": -1.8e-07,
        "MEAN_MOTION_DDOT": 0,
        "norad_id": 43001,
        "name": "BEIDOU-3 M1 (C19)",
        "group": "beidou",
        "longitude_deg": NaN,
        "latitude_deg": NaN,
        "alt_km": NaN,
        "orbit_class": "HEO",
        "timestamp": "2025-11-30T06:54:03.078741+00:00"
      },
      "geometry": {
        "type": "Point",
        "coordinates": [
          NaN,
          NaN
        ]
      }
    },
    {
      "type": "Feature",
      "properties": {
        "OBJECT_NAME": "BEIDOU-3 M2 (C20)",
        "OBJECT_ID": "2017-069B",
        "EPOCH": "2025-11-28T06:00:11.483424",
        "MEAN_MOTION": 1.86230672,
        "ECCENTRICITY": 0.00060168,
        "INCLINATION": 56.5138,
        "RA_OF_ASC_NODE": 69.7491,
        "ARG_OF_PERICENTER": 333.6631,
        "MEAN_ANOMALY": 26.3178,
        "EPHEMERIS_TYPE": 0,
        "CLASSIFICATION_TYPE": "U",
        "NORAD_CAT_ID": 43002,
        "ELEMENT_SET_NO": 999,
        "REV_AT_EPOCH": 5485,
        "BSTAR": 0,
        "MEAN_MOTION_DOT": -1.8e-07,
        "MEAN_MOTION_DDOT": 0,
        "norad_id": 43002,
        "name": "BEIDOU-3 M2 (C20)",
        "group": "beidou",
        "longitude_deg": NaN,
        "latitude_deg": NaN,
        "alt_km": NaN,
        "orbit_class": "HEO",
        "timestamp": "2025-11-30T06:54:03.078748+00:00"
      },
      "geometry": {
        "type": "Point",
        "coordinates": [
          NaN,
          NaN
        ]
      }
    },
    {
      "type": "Feature",
      "properties": {
        "OBJECT_NAME": "BEIDOU-3 M7 (C27)",
        "OBJECT_ID": "2018-003A",
        "EPOCH": "2025-11-29T14:30:05.127264",
        "MEAN_MOTION": 1.86232315,
        "ECCENTRICITY": 0.0002541,
        "INCLINATION": 54.5085,
        "RA_OF_ASC_NODE": 309.2719,
        "ARG_OF_PERICENTER": 71.5198,
        "MEAN_ANOMALY": 288.5077,
        "EPHEMERIS_TYPE": 0,
        "CLASSIFICATION_TYPE": "U",
        "NORAD_CAT_ID": 43107,
        "ELEMENT_SET_NO": 999,
        "REV_AT_EPOCH": 5363,
        "BSTAR": 0,
        "MEAN_MOTION_DOT": -4.8e-07,
        "MEAN_MOTION_DDOT": 0,
        "norad_id": 43107,
        "name": "BEIDOU-3 M7 (C27)",
        "group": "beidou",
        "longitude_deg": NaN,
        "latitude_deg": NaN,
        "alt_km": NaN,
        "orbit_class": "HEO",
        "timestamp": "2025-11-30T06:54:03.078973+00:00"
      },
      "geometry": {
        "type": "Point",
        "coordinates": [
          NaN,
          NaN
        ]
      }
    },
    {
      "type": "Feature",
      "properties": {
        "OBJECT_NAME": "BEIDOU-3 M8 (C28)",
        "OBJECT_ID": "2018-003B",
        "EPOCH": "2025-11-29T13:10:35.531040",
        "MEAN_MOTION": 1.8623082,
        "ECCENTRICITY": 0.0004845,
        "INCLINATION": 54.5014,
        "RA_OF_ASC_NODE": 309.2567,
        "ARG_OF_PERICENTER": 273.2539,
        "MEAN_ANOMALY": 86.6905,
        "EPHEMERIS_TYPE": 0,
        "CLASSIFICATION_TYPE": "U",
        "NORAD_CAT_ID": 43108,
        "ELEMENT_SET_NO": 999,
        "REV_AT_EPOCH": 5364,
        "BSTAR": 0,
        "MEAN_MOTION_DOT": -4.8e-07,
        "MEAN_MOTION_DDOT": 0,
        "norad_id": 43108,
        "name": "BEIDOU-3 M8 (C28)",
        "group": "beidou",
        "longitude_deg": NaN,
        "latitude_deg": NaN,
        "alt_km": NaN,
        "orbit_class": "HEO",
        "timestamp": "2025-11-30T06:54:03.078979+00:00"
      },
      "geometry": {
        "type": "Point",
        "coordinates": [
          NaN,
          NaN
        ]
      }
    },
    {
      "type": "Feature",
      "properties": {
        "OBJECT_NAME": "BEIDOU-3 M4 (C22)",
        "OBJECT_ID": "2018-018A",
        "EPOCH": "2025-11-26T18:27:35.955360",
        "MEAN_MOTION": 1.86230999,
        "ECCENTRICITY": 0.00039507,
        "INCLINATION": 56.4719,
        "RA_OF_ASC_NODE": 69.8337,
        "ARG_OF_PERICENTER": 19.032,
        "MEAN_ANOMALY": 340.9952,
        "EPHEMERIS_TYPE": 0,
        "CLASSIFICATION_TYPE": "U",
        "NORAD_CAT_ID": 43207,
        "ELEMENT_SET_NO": 999,
        "REV_AT_EPOCH": 5297,
        "BSTAR": 0,
        "MEAN_MOTION_DOT": -1.3e-07,
        "MEAN_MOTION_DDOT": 0,
        "norad_id": 43207,
        "name": "BEIDOU-3 M4 (C22)",
        "group": "beidou",
        "longitude_deg": NaN,
        "latitude_deg": NaN,
        "alt_km": NaN,
        "orbit_class": "HEO",
        "timestamp": "2025-11-30T06:54:03.079125+00:00"
      },
      "geometry": {
        "type": "Point",
        "coordinates": [
          NaN,
          NaN
        ]
      }
    },
    {
      "type": "Feature",
      "properties": {
        "OBJECT_NAME": "BEIDOU-3 M3 (C21)",
        "OBJECT_ID": "2018-018B",
        "EPOCH": "2025-11-25T18:16:58.521216",
        "MEAN_MOTION": 1.86231215,
        "ECCENTRICITY": 0.00059359,
        "INCLINATION": 56.4705,
        "RA_OF_ASC_NODE": 69.8711,
        "ARG_OF_PERICENTER": 317.5562,
        "MEAN_ANOMALY": 42.409,
        "EPHEMERIS_TYPE": 0,
        "CLASSIFICATION_TYPE": "U",
        "NORAD_CAT_ID": 43208,
        "ELEMENT_SET_NO": 999,
        "REV_AT_EPOCH": 5295,
        "BSTAR": 0,
        "MEAN_MOTION_DOT": -1.4e-07,
        "MEAN_MOTION_DDOT": 0,
        "norad_id": 43208,
        "name": "BEIDOU-3 M3 (C21)",
        "group": "beidou",
        "longitude_deg": NaN,
        "latitude_deg": NaN,
        "alt_km": NaN,
        "orbit_class": "HEO",
        "timestamp": "2025-11-30T06:54:03.079131+00:00"
      },
      "geometry": {
        "type": "Point",
        "coordinates": [
          NaN,
          NaN
        ]
      }
    },
    {
      "type": "Feature",
      "properties": {
        "OBJECT_NAME": "BEIDOU-3 M9 (C29)",
        "OBJECT_ID": "2018-029A",
        "EPOCH": "2025-11-29T04:47:21.996096",
        "MEAN_MOTION": 1.86228028,
        "ECCENTRICITY": 0.00018374,
        "INCLINATION": 54.3786,
        "RA_OF_ASC_NODE": 306.941,
        "ARG_OF_PERICENTER": 271.5998,
        "MEAN_ANOMALY": 88.3783,
        "EPHEMERIS_TYPE": 0,
        "CLASSIFICATION_TYPE": "U",
        "NORAD_CAT_ID": 43245,
        "ELEMENT_SET_NO": 999,
        "REV_AT_EPOCH": 5217,
        "BSTAR": 0,
        "MEAN_MOTION_DOT": -4.6e-07,
        "MEAN_MOTION_DDOT": 0,
        "norad_id": 43245,
        "name": "BEIDOU-3 M9 (C29)",
        "group": "beidou",
        "longitude_deg": NaN,
        "latitude_deg": NaN,
        "alt_km": NaN,
        "orbit_class": "HEO",
        "timestamp": "2025-11-30T06:54:03.079192+00:00"
      },
      "geometry": {
        "type": "Point",
        "coordinates": [
          NaN,
          NaN
        ]
      }
    },
    {
      "type": "Feature",
      "properties": {
        "OBJECT_NAME": "BEIDOU-3 M10 (C30)",
        "OBJECT_ID": "2018-029B",
        "EPOCH": "2025-11-29T03:14:13.986240",
        "MEAN_MOTION": 1.86228967,
        "ECCENTRICITY": 0.00039142,
        "INCLINATION": 54.3758,
        "RA_OF_ASC_NODE": 306.9698,
        "ARG_OF_PERICENTER": 358.6776,
        "MEAN_ANOMALY": 1.3207,
        "EPHEMERIS_TYPE": 0,
        "CLASSIFICATION_TYPE": "U",
        "NORAD_CAT_ID": 43246,
        "ELEMENT_SET_NO": 999,
        "REV_AT_EPOCH": 5215,
        "BSTAR": 0,
        "MEAN_MOTION_DOT": -4.6e-07,
        "MEAN_MOTION_DDOT": 0,
        "norad_id": 43246,
        "name": "BEIDOU-3 M10 (C30)",
        "group": "beidou",
        "longitude_deg": NaN,
        "latitude_deg": NaN,
        "alt_km": NaN,
        "orbit_class": "HEO",
        "timestamp": "2025-11-30T06:54:03.079198+00:00"
      },
      "geometry": {
        "type": "Point",
        "coordinates": [
          NaN,
          NaN
        ]
      }
    }
  ]
}